METHANESAT              
1 59101U 24043D   25154.86688733  .00003215  00000+0  29680-3 0  9993
2 59101  97.7985 281.0021 0010810 186.7165 173.3913 14.95303560 68064
